{
  "type": "FeatureCollection",
  "features": [
    {
      "type": "Feature",
      "properties": {
        "norad_id": 66990,
        "name": "TJS-22",
        "group": "last-30-days",
        "lat": 8.985060216311364,
        "lon": -35.253281253655146,
        "alt_km": 30089.09417655449,
        "timestamp": "2025-12-18T07:01:53.343427+00:00",
        "meta_object_name": "TJS-22",
        "meta_object_id": "2025-290A",
        "meta_epoch": "2025-12-10T07:11:32.845344",
        "meta_mean_motion": 2.15443148,
        "meta_eccentricity": 0.6664534,
        "meta_inclination": 20.1261,
        "meta_ra_of_asc_node": 301.1464,
        "meta_arg_of_pericenter": 180.6877,
        "meta_mean_anomaly": 177.6237,
        "meta_ephemeris_type": 0,
        "meta_classification_type": "U",
        "meta_norad_cat_id": 66990,
        "meta_element_set_no": 999,
        "meta_rev_at_epoch": 3,
        "meta_bstar": 0.079788243,
        "meta_mean_motion_dot": -3.8e-07,
        "meta_mean_motion_ddot": 0,
        "tle_line1": "1 66990U 25290A   25344.29968571 -.00000038  00000+0  79788-1 0  9994",
        "tle_line2": "2 66990  20.1261 301.1464 6664534 180.6877 177.6237  2.15443148    32"
      },
      "geometry": {
        "type": "Point",
        "coordinates": [
          -35.253281253655146,
          8.985060216311364
        ]
      }
    },
    {
      "type": "Feature",
      "properties": {
        "norad_id": 66991,
        "name": "CZ-3B R/B",
        "group": "last-30-days",
        "lat": 5.853514379443516,
        "lon": -49.66543514810984,
        "alt_km": 33350.021454683745,
        "timestamp": "2025-12-18T07:01:53.343439+00:00",
        "meta_object_name": "CZ-3B R/B",
        "meta_object_id": "2025-290B",
        "meta_epoch": "2025-12-15T17:23:33.043200",
        "meta_mean_motion": 2.38388611,
        "meta_eccentricity": 0.7240884,
        "meta_inclination": 28.4636,
        "meta_ra_of_asc_node": 300.4666,
        "meta_arg_of_pericenter": 182.7002,
        "meta_mean_anomaly": 168.625,
        "meta_ephemeris_type": 0,
        "meta_classification_type": "U",
        "meta_norad_cat_id": 66991,
        "meta_element_set_no": 999,
        "meta_rev_at_epoch": 16,
        "meta_bstar": 0.00075879,
        "meta_mean_motion_dot": 0.00057911,
        "meta_mean_motion_ddot": -2.0514e-07,
        "tle_line1": "1 66991U 25290B   25349.72468800  .00057911 -20514-6  75879-3 0  9998",
        "tle_line2": "2 66991  28.4636 300.4666 7240884 182.7002 168.6250  2.38388611   165"
      },
      "geometry": {
        "type": "Point",
        "coordinates": [
          -49.66543514810984,
          5.853514379443516
        ]
      }
    },
    {
      "type": "Feature",
      "properties": {
        "norad_id": 66993,
        "name": "2025-292A",
        "group": "last-30-days",
        "lat": 4.74216113152165,
        "lon": -114.5701983646985,
        "alt_km": 553.1762235565884,
        "timestamp": "2025-12-18T07:01:53.343450+00:00",
        "meta_object_name": "2025-292A",
        "meta_object_id": "2025-292A",
        "meta_epoch": "2025-12-17T20:40:38.138592",
        "meta_mean_motion": 15.04531563,
        "meta_eccentricity": 0.00138009,
        "meta_inclination": 97.6534,
        "meta_ra_of_asc_node": 64.3634,
        "meta_arg_of_pericenter": 253.4574,
        "meta_mean_anomaly": 106.5136,
        "meta_ephemeris_type": 0,
        "meta_classification_type": "U",
        "meta_norad_cat_id": 66993,
        "meta_element_set_no": 999,
        "meta_rev_at_epoch": 116,
        "meta_bstar": 0.00024226766,
        "meta_mean_motion_dot": 3.339e-05,
        "meta_mean_motion_ddot": 0,
        "tle_line1": "1 66993U 25292A   25351.86155253  .00003339  00000+0  24227-3 0  9991",
        "tle_line2": "2 66993  97.6534  64.3634 0013800 253.4574 106.5136 15.04531563  1160"
      },
      "geometry": {
        "type": "Point",
        "coordinates": [
          -114.5701983646985,
          4.74216113152165
        ]
      }
    },
    {
      "type": "Feature",
      "properties": {
        "norad_id": 66994,
        "name": "2025-292B",
        "group": "last-30-days",
        "lat": 3.4339621608214626,
        "lon": -114.74556568231824,
        "alt_km": 553.1158677070534,
        "timestamp": "2025-12-18T07:01:53.343460+00:00",
        "meta_object_name": "2025-292B",
        "meta_object_id": "2025-292B",
        "meta_epoch": "2025-12-17T20:40:18.146496",
        "meta_mean_motion": 15.04570934,
        "meta_eccentricity": 0.00135695,
        "meta_inclination": 97.6543,
        "meta_ra_of_asc_node": 64.3645,
        "meta_arg_of_pericenter": 253.8039,
        "meta_mean_anomaly": 106.1694,
        "meta_ephemeris_type": 0,
        "meta_classification_type": "U",
        "meta_norad_cat_id": 66994,
        "meta_element_set_no": 999,
        "meta_rev_at_epoch": 116,
        "meta_bstar": 0.00028475958,
        "meta_mean_motion_dot": 3.94e-05,
        "meta_mean_motion_ddot": 0,
        "tle_line1": "1 66994U 25292B   25351.86132114  .00003940  00000+0  28476-3 0  9991",
        "tle_line2": "2 66994  97.6543  64.3645 0013569 253.8039 106.1694 15.04570934  1165"
      },
      "geometry": {
        "type": "Point",
        "coordinates": [
          -114.74556568231824,
          3.4339621608214626
        ]
      }
    },
    {
      "type": "Feature",
      "properties": {
        "norad_id": 66995,
        "name": "2025-292C",
        "group": "last-30-days",
        "lat": 3.1574219743916316,
        "lon": -114.78363065868251,
        "alt_km": 553.037943820641,
        "timestamp": "2025-12-18T07:01:53.343470+00:00",
        "meta_object_name": "2025-292C",
        "meta_object_id": "2025-292C",
        "meta_epoch": "2025-12-17T20:40:14.213568",
        "meta_mean_motion": 15.04596066,
        "meta_eccentricity": 0.00138609,
        "meta_inclination": 97.6533,
        "meta_ra_of_asc_node": 64.3638,
        "meta_arg_of_pericenter": 254.1591,
        "meta_mean_anomaly": 105.8107,
        "meta_ephemeris_type": 0,
        "meta_classification_type": "U",
        "meta_norad_cat_id": 66995,
        "meta_element_set_no": 999,
        "meta_rev_at_epoch": 116,
        "meta_bstar": 0.00032308476,
        "meta_mean_motion_dot": 4.483e-05,
        "meta_mean_motion_ddot": 0,
        "tle_line1": "1 66995U 25292C   25351.86127562  .00004483  00000+0  32308-3 0  9995",
        "tle_line2": "2 66995  97.6533  64.3638 0013860 254.1591 105.8107 15.04596066  1167"
      },
      "geometry": {
        "type": "Point",
        "coordinates": [
          -114.78363065868251,
          3.1574219743916316
        ]
      }
    },
    {
      "type": "Feature",
      "properties": {
        "norad_id": 66996,
        "name": "2025-292D",
        "group": "last-30-days",
        "lat": 1.7711816969354044,
        "lon": -114.97037972343131,
        "alt_km": 553.4644935945962,
        "timestamp": "2025-12-18T07:01:53.343482+00:00",
        "meta_object_name": "2025-292D",
        "meta_object_id": "2025-292D",
        "meta_epoch": "2025-12-17T20:39:52.982496",
        "meta_mean_motion": 15.04630605,
        "meta_eccentricity": 0.00130352,
        "meta_inclination": 97.6527,
        "meta_ra_of_asc_node": 64.3636,
        "meta_arg_of_pericenter": 256.8674,
        "meta_mean_anomaly": 103.1097,
        "meta_ephemeris_type": 0,
        "meta_classification_type": "U",
        "meta_norad_cat_id": 66996,
        "meta_element_set_no": 999,
        "meta_rev_at_epoch": 116,
        "meta_bstar": 0.00019907174,
        "meta_mean_motion_dot": 2.739e-05,
        "meta_mean_motion_ddot": 0,
        "tle_line1": "1 66996U 25292D   25351.86102989  .00002739  00000+0  19907-3 0  9994",
        "tle_line2": "2 66996  97.6527  64.3636 0013035 256.8674 103.1097 15.04630605  1161"
      },
      "geometry": {
        "type": "Point",
        "coordinates": [
          -114.97037972343131,
          1.7711816969354044
        ]
      }
    },
    {
      "type": "Feature",
      "properties": {
        "norad_id": 66997,
        "name": "2025-292E",
        "group": "last-30-days",
        "lat": -0.542892420340817,
        "lon": -115.27864531016438,
        "alt_km": 553.2260870366563,
        "timestamp": "2025-12-18T07:01:53.343495+00:00",
        "meta_object_name": "2025-292E",
        "meta_object_id": "2025-292E",
        "meta_epoch": "2025-12-17T20:39:17.700192",
        "meta_mean_motion": 15.04714812,
        "meta_eccentricity": 0.0013395,
        "meta_inclination": 97.6548,
        "meta_ra_of_asc_node": 64.366,
        "meta_arg_of_pericenter": 257.7575,
        "meta_mean_anomaly": 102.2151,
        "meta_ephemeris_type": 0,
        "meta_classification_type": "U",
        "meta_norad_cat_id": 66997,
        "meta_element_set_no": 999,
        "meta_rev_at_epoch": 115,
        "meta_bstar": 0.00024240153,
        "meta_mean_motion_dot": 3.357e-05,
        "meta_mean_motion_ddot": 0,
        "tle_line1": "1 66997U 25292E   25351.86062153  .00003357  00000+0  24240-3 0  9996",
        "tle_line2": "2 66997  97.6548  64.3660 0013395 257.7575 102.2151 15.04714812  1154"
      },
      "geometry": {
        "type": "Point",
        "coordinates": [
          -115.27864531016438,
          -0.542892420340817
        ]
      }
    }
  ]
}